{
  "links": {
    "self": "https://api.nasa.gov/neo/rest/v1/neo/2242211?api_key=N7LkblDsc5aen05FJqBQ8wU4qSdmsftwJagVK7UD"
  },
  "neo_reference_id": "2242211",
  "name": "242211 (2003 QB90)",
  "nasa_jpl_url": "http://ssd.jpl.nasa.gov/sbdb.cgi?sstr=2242211",
  "absolute_magnitude_h": 18.2,
  "estimated_diameter": {
    "kilometers": {
      "estimated_diameter_min": 0.6089126221,
      "estimated_diameter_max": 1.3615700154
    },
    "meters": {
      "estimated_diameter_min": 608.9126221057,
      "estimated_diameter_max": 1361.5700153859
    },
    "miles": {
      "estimated_diameter_min": 0.3783606449,
      "estimated_diameter_max": 0.846040122
    },
    "feet": {
      "estimated_diameter_min": 1997.7448871092,
      "estimated_diameter_max": 4467.0933692788
    }
  },
  "is_potentially_hazardous_asteroid": false,
  "close_approach_data": [
    {
      "close_approach_date": "2017-08-23",
      "epoch_date_close_approach": 1503471600000,
      "relative_velocity": {
        "kilometers_per_second": "4.4762579248",
        "kilometers_per_hour": "16114.5285293318",
        "miles_per_hour": "10012.9413520173"
      },
      "miss_distance": {
        "astronomical": "0.2809477812",
        "lunar": "109.2886810303",
        "kilometers": "42029188",
        "miles": "26115728"
      },
      "orbiting_body": "Earth"
    }
  ],
  "orbital_data": {
    "orbit_id": "68",
    "orbit_determination_date": "2017-08-21 06:19:18",
    "orbit_uncertainty": "0",
    "minimum_orbit_intersection": ".212716",
    "jupiter_tisserand_invariant": "3.415",
    "epoch_osculation": "2458000.5",
    "eccentricity": ".4745153377034316",
    "semi_major_axis": "2.318594879699658",
    "inclination": "4.834995031088305",
    "ascending_node_longitude": "129.330110611896",
    "orbital_period": "1289.542724497666",
    "perihelion_distance": "1.218386047361527",
    "perihelion_argument": "208.8525066225631",
    "aphelion_distance": "3.418803712037788",
    "perihelion_time": "2458007.709140081216",
    "mean_anomaly": "357.9874335452911",
    "mean_motion": ".2791687263717734",
    "equinox": "J2000"
  }
}